SATELIOT_3              
1 60552U 24149CN  26193.78419576  .00000537  00000+0  50221-4 0  9994
2 60552  97.6823 270.0724 0005320  15.1822 344.9560 14.98161521103919
BRO-15                  
1 60553U 24149CP  26193.99259326  .00000436  00000+0  43745-4 0  9994
2 60553  97.6795 268.8846 0007923  12.0200 348.1209 14.96221271103862
UM5-RIBAT               
1 60554U 24149CQ  26194.20186595  .00001338  00000+0  10892-3 0  9995
2 60554  97.6612 271.6497 0000914   6.4092 353.7144 15.01213432104097
UM5-EOSAT               
1 60555U 24149CR  26193.76008201  .00002218  00000+0  17506-3 0  9990
2 60555  97.6776 272.2083 0009201  42.2047 317.9884 15.01719853104050
LASARSAT                
1 62391U 24247Q   26193.99643288  .00028123  00000+0  53151-3 0  9993
2 62391  44.9747 117.0092 0006976 149.4103 210.7196 15.47948222 87317
CROCUBE                 
1 62394U 24247T   26193.83193796  .00028068  00000+0  49242-3 0  9997
2 62394  44.9714 114.8252 0007253 157.3362 202.7851 15.50071349 87322
TEVEL2-4                
1 63213U 25052D   26194.51714020  .00011498  00000+0  33514-3 0  9992
2 63213  97.3877  90.9652 0003689  55.3920 304.7671 15.35528230 74158
TEVEL2-5                
1 63214U 25052E   26194.14966326  .00011850  00000+0  34745-3 0  9999
2 63214  97.3876  90.5369 0003788  56.8499 303.3107 15.35333367 74093
TEVEL2-6                
1 63215U 25052F   26193.70635362  .00012019  00000+0  35290-3 0  9998
2 63215  97.3879  90.0772 0003781  60.8657 299.2965 15.35286778 74025
TEVEL2-1                
1 63217U 25052H   26193.67932412  .00011444  00000+0  34224-3 0  9999
2 63217  97.3853  89.6437 0004432  65.2904 294.8800 15.34718554 74007
TEVEL2-3                
1 63218U 25052J   26193.67298572  .00011907  00000+0  35527-3 0  9993
2 63218  97.3855  89.6625 0004207  66.7009 293.4677 15.34780805 74006
TEVEL2-2                
1 63219U 25052K   26193.67946927  .00011375  00000+0  34007-3 0  9999
2 63219  97.3850  89.6469 0004491  65.9197 294.2516 15.34729067 74006
TEVEL2-9                
1 63237U 25052AD  26194.14738760  .00010512  00000+0  33505-3 0  9990
2 63237  97.3915  89.4327 0007831  62.8126 297.3913 15.32691499 74008
TEVEL2-7                
1 63238U 25052AE  26194.19344972  .00010302  00000+0  33165-3 0  9993
2 63238  97.3914  89.3836 0007880  62.2536 297.9504 15.32377628 74002
TEVEL2-8                
1 63239U 25052AF  26193.67954412  .00011622  00000+0  37402-3 0  9996
2 63239  97.3914  88.8465 0007981  64.8281 295.3788 15.32353925 73922
FORESAIL-1 PRIME        
1 66778U 25276DS  26194.15202083  .00002951  00000+0  14455-3 0  9997
2 66778  97.4194 266.9496 0003041  49.5627 310.5873 15.18928427 34341
